{"type": "FeatureCollection", "features": [ {"type": "Feature", "properties": {"norad_id": 34972, "name": "COSMOS 2251 DEB", "group": "cosmos-2251-debris", "lat": 15.651664141348139, "lon": 71.90445046943877, "alt_km": 673.9664919578472, "timestamp": "2025-12-03T19:33:07.372958+00:00", "meta": {"OBJECT_NAME": "COSMOS 2251 DEB", "OBJECT_ID": "1993-036AFB", "EPOCH": "2025-12-03T06:34:34.182336", "MEAN_MOTION": 14.72590746, "ECCENTRICITY": 0.0034486, "INCLINATION": 73.9887, "RA_OF_ASC_NODE": 68.345, "ARG_OF_PERICENTER": 228.4328, "MEAN_ANOMALY": 162.7226, "EPHEMERIS_TYPE": 0, "CLASSIFICATION_TYPE": "U", "NORAD_CAT_ID": 34972, "ELEMENT_SET_NO": 999, "REV_AT_EPOCH": 87511, "BSTAR": 0.0021523, "MEAN_MOTION_DOT": 0.0001382, "MEAN_MOTION_DDOT": 0}, "tle": {"line1": "1 34972U 93036AFB 25337.27400674  .00013820  00000+0  21523-2 0  9994", "line2": "2 34972  73.9887  68.3450 0034486 228.4328 162.7226 14.72590746875112"}}, "geometry": {"type": "Point", "coordinates": [71.90445046943877, 15.651664141348139]}}, {"type": "Feature", "properties": {"norad_id": 34976, "name": "COSMOS 2251 DEB", "group": "cosmos-2251-debris", "lat": -7.432602269663874, "lon": -38.42700892418491, "alt_km": 613.216771856064, "timestamp": "2025-12-03T19:33:07.372968+00:00", "meta": {"OBJECT_NAME": "COSMOS 2251 DEB", "OBJECT_ID": "1993-036AFF", "EPOCH": "2025-12-02T01:35:05.811072", "MEAN_MOTION": 14.76206846, "ECCENTRICITY": 0.00478033, "INCLINATION": 74.0574, "RA_OF_ASC_NODE": 327.1281, "ARG_OF_PERICENTER": 16.149, "MEAN_ANOMALY": 47.3762, "EPHEMERIS_TYPE": 0, "CLASSIFICATION_TYPE": "U", "NORAD_CAT_ID": 34976, "ELEMENT_SET_NO": 999, "REV_AT_EPOCH": 88116, "BSTAR": 0.0014415592, "MEAN_MOTION_DOT": 0.00010144, "MEAN_MOTION_DDOT": 0}, "tle": {"line1": "1 34976U 93036AFF 25336.06603948  .00010144  00000+0  14416-2 0  9992", "line2": "2 34976  74.0574 327.1281 0047803  16.1490  47.3762 14.76206846881162"}}, "geometry": {"type": "Point", "coordinates": [-38.42700892418491, -7.432602269663874]}}, {"type": "Feature", "properties": {"norad_id": 34979, "name": "COSMOS 2251 DEB", "group": "cosmos-2251-debris", "lat": -46.77412774431546, "lon": -92.90880916768063, "alt_km": 618.3121731963884, "timestamp": "2025-12-03T19:33:07.372978+00:00", "meta": {"OBJECT_NAME": "COSMOS 2251 DEB", "OBJECT_ID": "1993-036AFJ", "EPOCH": "2025-12-03T05:09:44.545824", "MEAN_MOTION": 14.79022848, "ECCENTRICITY": 0.0049249, "INCLINATION": 74.0398, "RA_OF_ASC_NODE": 285.9966, "ARG_OF_PERICENTER": 5.9578, "MEAN_ANOMALY": 354.2172, "EPHEMERIS_TYPE": 0, "CLASSIFICATION_TYPE": "U", "NORAD_CAT_ID": 34979, "ELEMENT_SET_NO": 999, "REV_AT_EPOCH": 88079, "BSTAR": 0.0019442, "MEAN_MOTION_DOT": 0.00014666, "MEAN_MOTION_DDOT": 0}, "tle": {"line1": "1 34979U 93036AFJ 25337.21509891  .00014666  00000+0  19442-2 0  9992", "line2": "2 34979  74.0398 285.9966 0049249   5.9578 354.2172 14.79022848880793"}}, "geometry": {"type": "Point", "coordinates": [-92.90880916768063, -46.77412774431546]}}, {"type": "Feature", "properties": {"norad_id": 34990, "name": "COSMOS 2251 DEB", "group": "cosmos-2251-debris", "lat": 20.743145427389987, "lon": 81.66173029938149, "alt_km": 761.8124774739954, "timestamp": "2025-12-03T19:33:07.372988+00:00", "meta": {"OBJECT_NAME": "COSMOS 2251 DEB", "OBJECT_ID": "1993-036AFN", "EPOCH": "2025-11-30T02:35:36.793536", "MEAN_MOTION": 14.42317714, "ECCENTRICITY": 0.00161518, "INCLINATION": 74.0452, "RA_OF_ASC_NODE": 274.7497, "ARG_OF_PERICENTER": 338.715, "MEAN_ANOMALY": 21.3332, "EPHEMERIS_TYPE": 0, "CLASSIFICATION_TYPE": "U", "NORAD_CAT_ID": 34990, "ELEMENT_SET_NO": 999, "REV_AT_EPOCH": 87164, "BSTAR": 0.00051741405, "MEAN_MOTION_DOT": 1.685e-05, "MEAN_MOTION_DDOT": 0}, "tle": {"line1": "1 34990U 93036AFN 25334.10806474  .00001685  00000+0  51741-3 0  9993", "line2": "2 34990  74.0452 274.7497 0016151 338.7150  21.3332 14.42317714871644"}}, "geometry": {"type": "Point", "coordinates": [81.66173029938149, 20.743145427389987]}}, {"type": "Feature", "properties": {"norad_id": 34997, "name": "COSMOS 2251 DEB", "group": "cosmos-2251-debris", "lat": -40.592388657850194, "lon": 162.34937711161948, "alt_km": 736.4104740764406, "timestamp": "2025-12-03T19:33:07.372998+00:00", "meta": {"OBJECT_NAME": "COSMOS 2251 DEB", "OBJECT_ID": "1993-036AFV", "EPOCH": "2025-11-29T18:09:59.976288", "MEAN_MOTION": 14.45289096, "ECCENTRICITY": 0.00981723, "INCLINATION": 73.8805, "RA_OF_ASC_NODE": 335.6343, "ARG_OF_PERICENTER": 312.7593, "MEAN_ANOMALY": 46.5333, "EPHEMERIS_TYPE": 0, "CLASSIFICATION_TYPE": "U", "NORAD_CAT_ID": 34997, "ELEMENT_SET_NO": 999, "REV_AT_EPOCH": 70559, "BSTAR": 0.0014679127, "MEAN_MOTION_DOT": 5.442e-05, "MEAN_MOTION_DDOT": 0}, "tle": {"line1": "1 34997U 93036AFV 25333.75694417  .00005442  00000+0  14679-2 0  9995", "line2": "2 34997  73.8805 335.6343 0098172 312.7593  46.5333 14.45289096705597"}}, "geometry": {"type": "Point", "coordinates": [162.34937711161948, -40.592388657850194]}}, {"type": "Feature", "properties": {"norad_id": 34998, "name": "COSMOS 2251 DEB", "group": "cosmos-2251-debris", "lat": -17.64436495382133, "lon": 171.51571927117803, "alt_km": 718.7840808549872, "timestamp": "2025-12-03T19:33:07.373008+00:00", "meta": {"OBJECT_NAME": "COSMOS 2251 DEB", "OBJECT_ID": "1993-036AFW", "EPOCH": "2025-12-03T00:27:28.459296", "MEAN_MOTION": 14.49214927, "ECCENTRICITY": 0.00207984, "INCLINATION": 74.0093, "RA_OF_ASC_NODE": 178.2428, "ARG_OF_PERICENTER": 324.9753, "MEAN_ANOMALY": 187.6358, "EPHEMERIS_TYPE": 0, "CLASSIFICATION_TYPE": "U", "NORAD_CAT_ID": 34998, "ELEMENT_SET_NO": 999, "REV_AT_EPOCH": 87279, "BSTAR": 0.00066768373, "MEAN_MOTION_DOT": 2.523e-05, "MEAN_MOTION_DDOT": 0}, "tle": {"line1": "1 34998U 93036AFW 25337.01907939  .00002523  00000+0  66768-3 0  9999", "line2": "2 34998  74.0093 178.2428 0020798 324.9753 187.6358 14.49214927872793"}}, "geometry": {"type": "Point", "coordinates": [171.51571927117803, -17.64436495382133]}}, {"type": "Feature", "properties": {"norad_id": 35000, "name": "COSMOS 2251 DEB", "group": "cosmos-2251-debris", "lat": 35.838335975562636, "lon": -129.6363964518499, "alt_km": 367.3864875545278, "timestamp": "2025-12-03T19:33:07.373018+00:00", "meta": {"OBJECT_NAME": "COSMOS 2251 DEB", "OBJECT_ID": "1993-036AFY", "EPOCH": "2025-12-01T03:01:08.937696", "MEAN_MOTION": 15.64973748, "ECCENTRICITY": 0.00107373, "INCLINATION": 74.0059, "RA_OF_ASC_NODE": 224.4619, "ARG_OF_PERICENTER": 189.9912, "MEAN_ANOMALY": 170.1097, "EPHEMERIS_TYPE": 0, "CLASSIFICATION_TYPE": "U", "NORAD_CAT_ID": 35000, "ELEMENT_SET_NO": 999, "REV_AT_EPOCH": 88332, "BSTAR": 0.0058109544, "MEAN_MOTION_DOT": 0.00615456, "MEAN_MOTION_DDOT": 0}, "tle": {"line1": "1 35000U 93036AFY 25335.12579789  .00615456  00000+0  58110-2 0  9998", "line2": "2 35000  74.0059 224.4619 0010737 189.9912 170.1097 15.64973748883323"}}, "geometry": {"type": "Point", "coordinates": [-129.6363964518499, 35.838335975562636]}}, {"type": "Feature", "properties": {"norad_id": 35012, "name": "COSMOS 2251 DEB", "group": "cosmos-2251-debris", "lat": 67.88063370788781, "lon": 173.23265276979558, "alt_km": 789.240130497983, "timestamp": "2025-12-03T19:33:07.373028+00:00", "meta": {"OBJECT_NAME": "COSMOS 2251 DEB", "OBJECT_ID": "1993-036AFZ", "EPOCH": "2025-11-29T10:33:51.837120", "MEAN_MOTION": 14.45521065, "ECCENTRICITY": 0.0081636, "INCLINATION": 74.0181, "RA_OF_ASC_NODE": 136.5568, "ARG_OF_PERICENTER": 279.5143, "MEAN_ANOMALY": 79.6796, "EPHEMERIS_TYPE": 0, "CLASSIFICATION_TYPE": "U", "NORAD_CAT_ID": 35012, "ELEMENT_SET_NO": 999, "REV_AT_EPOCH": 87369, "BSTAR": 0.00015191388, "MEAN_MOTION_DOT": 5.29e-06, "MEAN_MOTION_DDOT": 0}, "tle": {"line1": "1 35012U 93036AFZ 25333.44018330  .00000529  00000+0  15191-3 0  9996", "line2": "2 35012  74.0181 136.5568 0081636 279.5143  79.6796 14.45521065873693"}}, "geometry": {"type": "Point", "coordinates": [173.23265276979558, 67.88063370788781]}}, {"type": "Feature", "properties": {"norad_id": 35014, "name": "COSMOS 2251 DEB", "group": "cosmos-2251-debris", "lat": -44.049986934534985, "lon": 44.90715378376094, "alt_km": 651.3487866956511, "timestamp": "2025-12-03T19:33:07.373038+00:00", "meta": {"OBJECT_NAME": "COSMOS 2251 DEB", "OBJECT_ID": "1993-036AGB", "EPOCH": "2025-11-29T00:10:14.201184", "MEAN_MOTION": 14.74716562, "ECCENTRICITY": 0.00081798, "INCLINATION": 73.9988, "RA_OF_ASC_NODE": 70.4329, "ARG_OF_PERICENTER": 241.0886, "MEAN_ANOMALY": 118.9467, "EPHEMERIS_TYPE": 0, "CLASSIFICATION_TYPE": "U", "NORAD_CAT_ID": 35014, "ELEMENT_SET_NO": 999, "REV_AT_EPOCH": 71134, "BSTAR": 0.0017863262, "MEAN_MOTION_DOT": 0.00011934, "MEAN_MOTION_DDOT": 0}, "tle": {"line1": "1 35014U 93036AGB 25333.00710881  .00011934  00000+0  17863-2 0  9999", "line2": "2 35014  73.9988  70.4329 0008179 241.0886 118.9467 14.74716562711343"}}, "geometry": {"type": "Point", "coordinates": [44.90715378376094, -44.049986934534985]}}, {"type": "Feature", "properties": {"norad_id": 35015, "name": "COSMOS 2251 DEB", "group": "cosmos-2251-debris", "lat": 10.520883817287409, "lon": 68.4272586953158, "alt_km": 700.5181177187433, "timestamp": "2025-12-03T19:33:07.373059+00:00", "meta": {"OBJECT_NAME": "COSMOS 2251 DEB", "OBJECT_ID": "1993-036AGC", "EPOCH": "2025-12-01T12:49:23.800800", "MEAN_MOTION": 14.46768601, "ECCENTRICITY": 0.00742089, "INCLINATION": 73.9481, "RA_OF_ASC_NODE": 255.7738, "ARG_OF_PERICENTER": 127.6207, "MEAN_ANOMALY": 48.46, "EPHEMERIS_TYPE": 0, "CLASSIFICATION_TYPE": "U", "NORAD_CAT_ID": 35015, "ELEMENT_SET_NO": 999, "REV_AT_EPOCH": 65278, "BSTAR": 0.00081419309, "MEAN_MOTION_DOT": 3.023e-05, "MEAN_MOTION_DDOT": 0}, "tle": {"line1": "1 35015U 93036AGC 25335.53430325  .00003023  00000+0  81419-3 0  9991", "line2": "2 35015  73.9481 255.7738 0074208 127.6207  48.4600 14.46768601652784"}}, "geometry": {"type": "Point", "coordinates": [68.4272586953158, 10.520883817287409]}}]}